[{"OBJECT_NAME":"STARLINK-5489","OBJECT_ID":"2023-046AW","EPOCH":"2026-03-09T22:00:01.999584","MEAN_MOTION":15.11733158,"ECCENTRICITY":0.00011457,"INCLINATION":43.0007,"RA_OF_ASC_NODE":144.4639,"ARG_OF_PERICENTER":286.2808,"MEAN_ANOMALY":277.5007,"EPHEMERIS_TYPE":0,"CLASSIFICATION_TYPE":"U","NORAD_CAT_ID":56136,"ELEMENT_SET_NO":999,"REV_AT_EPOCH":578,"BSTAR":0.00023094589,"MEAN_MOTION_DOT":3.785e-5,"MEAN_MOTION_DDOT":0},{"OBJECT_NAME":"CZ-2F DEB","OBJECT_ID":"2022-093H","EPOCH":"2026-03-09T22:47:12.359904","MEAN_MOTION":15.21733628,"ECCENTRICITY":0.00740619,"INCLINATION":50.0217,"RA_OF_ASC_NODE":315.3952,"ARG_OF_PERICENTER":34.8084,"MEAN_ANOMALY":325.7683,"EPHEMERIS_TYPE":0,"CLASSIFICATION_TYPE":"U","NORAD_CAT_ID":53364,"ELEMENT_SET_NO":999,"REV_AT_EPOCH":19831,"BSTAR":0.00048014935,"MEAN_MOTION_DOT":0.00011557,"MEAN_MOTION_DDOT":0}]
